{
    "links": {
        "self": "http://www.neowsapp.com/rest/v1/neo/3727035?api_key=iIulBulltgU6a56xZRHN4H3l9WmuAYTsLGpBGhQ2"
    },
    "id": "3727035",
    "neo_reference_id": "3727035",
    "name": "(2015 RO35)",
    "designation": "2015 RO35",
    "nasa_jpl_url": "http://ssd.jpl.nasa.gov/sbdb.cgi?sstr=3727035",
    "absolute_magnitude_h": 25.7,
    "estimated_diameter": {
        "kilometers": {
            "estimated_diameter_min": 0.0192555078,
            "estimated_diameter_max": 0.0430566244
        },
        "meters": {
            "estimated_diameter_min": 19.2555078188,
            "estimated_diameter_max": 43.0566244241
        },
        "miles": {
            "estimated_diameter_min": 0.0119648141,
            "estimated_diameter_max": 0.0267541378
        },
        "feet": {
            "estimated_diameter_min": 63.1742402722,
            "estimated_diameter_max": 141.2618956756
        }
    },
    "is_potentially_hazardous_asteroid": false,
    "close_approach_data": [
        {
            "close_approach_date": "2015-08-28",
            "close_approach_date_full": "2015-Aug-28 00:18",
            "epoch_date_close_approach": 1440721080000,
            "relative_velocity": {
                "kilometers_per_second": "7.0802353082",
                "kilometers_per_hour": "25488.8471095705",
                "miles_per_hour": "15837.778360944"
            },
            "miss_distance": {
                "astronomical": "0.016659319",
                "lunar": "6.480475091",
                "kilometers": "2492198.63805053",
                "miles": "1548580.425056114"
            },
            "orbiting_body": "Earth"
        }
    ],
    "orbital_data": {
        "orbit_id": "7",
        "orbit_determination_date": "2017-04-06 08:32:08",
        "first_observation_date": "2015-09-09",
        "last_observation_date": "2015-09-17",
        "data_arc_in_days": 8,
        "observations_used": 19,
        "orbit_uncertainty": "8",
        "minimum_orbit_intersection": ".0164427",
        "jupiter_tisserand_invariant": "3.429",
        "epoch_osculation": "2457275.5",
        "eccentricity": ".5413469095674146",
        "semi_major_axis": "2.2367801681028",
        "inclination": "1.201498911454489",
        "ascending_node_longitude": "343.4516798185982",
        "orbital_period": "1221.893577659083",
        "perihelion_distance": "1.025906136718667",
        "perihelion_argument": "354.2413482433735",
        "aphelion_distance": "3.447654199486932",
        "perihelion_time": "2457265.424190369333",
        "mean_anomaly": "2.9685821526203",
        "mean_motion": ".2946246764711637",
        "equinox": "J2000",
        "orbit_class": {
            "orbit_class_type": "AMO",
            "orbit_class_description": "Near-Earth asteroid orbits similar to that of 1221 Amor",
            "orbit_class_range": "1.017 AU < q (perihelion) < 1.3 AU"
        }
    },
    "is_sentry_object": false
}